ONEWEB-0298             
1 49087U 21075N   23280.51456382  .00000004  00000+0 -21860-4 0  9997
2 49087  87.9264 201.3476 0001752  81.1620 278.9709 13.17649446104082
ONEWEB-0299             
1 49088U 21075P   23280.51666069  .00000027  00000+0  35211-4 0  9992
2 49088  87.9196 201.3537 0001651  81.8484 278.2835 13.17646591104067
ONEWEB-0300             
1 49089U 21075Q   23280.49177904  .00000377  00000+0  10128-2 0  9991
2 49089  87.9069 186.2540 0001919  80.9686 279.1660 13.12446432106170
ONEWEB-0301             
1 49090U 21075R   23280.24824285 -.00000059  00000+0 -19895-3 0  9997
2 49090  87.9073 186.3039 0002194  77.1726 282.9648 13.12447956105506
ONEWEB-0302             
1 49091U 21075S   23280.46529934 -.00000388  00000+0 -11151-2 0  9996
2 49091  87.9073 186.2582 0001569  71.3644 288.7655 13.12444273105511
ONEWEB-0304             
1 49092U 21075T   23280.49345863  .00000005  00000+0 -21359-4 0  9995
2 49092  87.9253 201.3536 0001766  80.4498 279.6833 13.17647571104031
ONEWEB-0305             
1 49093U 21075U   23280.33103366  .00000097  00000+0  21784-3 0  9990
2 49093  87.9177 201.3854 0001413  85.8341 274.2952 13.17653169104049
ONEWEB-0308             
1 49094U 21075V   23280.46000678 -.00000419  00000+0 -12001-2 0  9998
2 49094  87.9075 186.2613 0001953  75.9256 284.2090 13.12442841105521
